NORAD_CAT_ID,OBJECT_NAME,OBJECT_TYPE,EPOCH,MEAN_MOTION,ECCENTRICITY,INCLINATION,RA_OF_ASC_NODE,ARG_OF_PERICENTER,MEAN_ANOMALY,BSTAR,MEAN_MOTION_DOT,MEAN_MOTION_DDOT,TLE_LINE0,TLE_LINE1,TLE_LINE2,SEMIMAJOR_AXIS,PERIOD,APOGEE,PERIGEE,DECAYED
53637.0,STARLINK-4396,PAYLOAD,2024-01-30 12:24:37,15.08842161,0.0001875,53.2189,77.2503,65.964,294.1549,7.3145e-05,8.76e-06,0.0,0 STARLINK-4396,1 53637U 22104BB  24030.51709545  .00000876  00000-0  73145-4 0  9993,2 53637  53.2189  77.2503 0001875  65.9640 294.1549 15.08842161 80108,6917.874,95.437,541.036,538.442,0.0
53637.0,STARLINK-4396,PAYLOAD,2024-01-31 09:04:38,15.08831757,0.0002448,53.2203,73.3804,58.2848,301.8382,0.00014848,2.075e-05,0.0,0 STARLINK-4396,1 53637U 22104BB  24031.37821980  .00002075  00000-0  14848-3 0  9993,2 53637  53.2203  73.3804 0002448  58.2848 301.8382 15.08831757 80232,6917.906,95.438,541.464,538.077,0.0
53637.0,STARLINK-4396,PAYLOAD,2024-02-01 08:55:25,15.08824103,0.000148,53.2175,68.9235,94.0503,266.0659,0.00019746,2.855e-05,0.0,0 STARLINK-4396,1 53637U 22104BB  24032.37181807  .00002855  00000-0  19746-3 0  9999,2 53637  53.2175  68.9235 0001480  94.0503 266.0659 15.08824103 79367,6917.929,95.439,540.818,538.77,0.0
53637.0,STARLINK-4396,PAYLOAD,2024-02-01 12:06:11,15.08811568,0.0001645,53.2174,68.3303,97.4495,262.6684,0.0003627,5.485e-05,0.0,0 STARLINK-4396,1 53637U 22104BB  24032.50430169  .00005485  00000-0  36270-3 0  9995,2 53637  53.2174  68.3303 0001645  97.4495 262.6684 15.08811568 80404,6917.967,95.439,540.97,538.694,0.0
53637.0,STARLINK-4396,PAYLOAD,2024-02-02 11:56:57,15.08842547,0.0001658,53.2175,63.8709,101.4929,258.6249,4.1626e-05,3.75e-06,0.0,0 STARLINK-4396,1 53637U 22104BB  24033.49789265  .00000375  00000-0  41626-4 0  9993,2 53637  53.2175  63.8709 0001658 101.4929 258.6249 15.08842547 79532,6917.873,95.437,540.885,538.591,0.0
53637.0,STARLINK-4396,PAYLOAD,2024-02-03 02:15:27,15.08831416,0.0001636,53.2176,61.1938,91.4551,268.6628,-1.9778e-05,-6.03e-06,0.0,0 STARLINK-4396,1 53637U 22104BB  24034.09406351 -.00000603  00000-0 -19778-4 0  9991,2 53637  53.2176  61.1938 0001636  91.4551 268.6628 15.08831416 79628,6917.907,95.438,540.903,538.64,0.0
53637.0,STARLINK-4396,PAYLOAD,2024-02-03 11:47:46,15.08831479,0.0001629,53.2174,59.41,91.14,268.9779,-1.9591e-05,-6e-06,0.0,0 STARLINK-4396,1 53637U 22104BB  24034.49150557 -.00000600  00000-0 -19591-4 0  9999,2 53637  53.2174  59.4100 0001629  91.1400 268.9779 15.08831479 80709,6917.906,95.438,540.898,538.645,0.0
53637.0,STARLINK-4396,PAYLOAD,2024-02-03 18:09:18,15.08835374,0.0001708,53.2183,58.2231,87.2472,272.8716,-1.3674e-05,-5.06e-06,0.0,0 STARLINK-4396,1 53637U 22104BB  24034.75646418 -.00000506  00000-0 -13674-4 0  9995,2 53637  53.2183  58.2231 0001708  87.2472 272.8716 15.08835374 80741,6917.895,95.438,540.941,538.578,0.0
53637.0,STARLINK-4396,PAYLOAD,2024-02-04 08:27:48,15.08808286,0.0001572,53.2183,55.5476,81.5471,278.5699,-0.00020338,-3.52e-05,0.0,0 STARLINK-4396,1 53637U 22104BB  24035.35264983 -.00003520  00000-0 -20338-3 0  9998,2 53637  53.2183  55.5476 0001572  81.5471 278.5699 15.08808286 79818,6917.977,95.44,540.93,538.755,0.0
53637.0,STARLINK-4396,PAYLOAD,2024-02-05 00:21:39,15.08819297,0.0001548,53.2173,52.5734,63.4855,296.6296,-1.3342e-05,-5e-06,0.0,0 STARLINK-4396,1 53637U 22104BB  24036.01504525 -.00000500  00000-0 -13342-4 0  9994,2 53637  53.2173  52.5734 0001548  63.4855 296.6296 15.08819297 79918,6917.944,95.439,540.88,538.738,0.0
53637.0,STARLINK-4396,PAYLOAD,2024-02-05 08:18:35,15.08832064,0.0002047,53.2183,51.0881,58.2714,301.8478,7.4687e-05,9e-06,0.0,0 STARLINK-4396,1 53637U 22104BB  24036.34623901  .00000900  00000-0  74687-4 0  9991,2 53637  53.2183  51.0881 0002047  58.2714 301.8478 15.08832064 79960,6917.905,95.438,541.186,538.354,0.0
53637.0,STARLINK-4396,PAYLOAD,2024-02-06 09:44:43,15.08835961,0.0001884,53.2188,46.3312,53.9182,306.1984,0.00055038,8.481e-05,0.0,0 STARLINK-4396,1 53637U 22104BB  24037.40606210  .00008481  00000-0  55038-3 0  9993,2 53637  53.2188  46.3312 0001884  53.9182 306.1984 15.08835961 80129,6917.893,95.438,541.061,538.454,0.0
53637.0,STARLINK-4396,PAYLOAD,2024-02-07 00:03:12,15.08845568,0.0001716,53.2183,43.6511,76.9406,283.1778,1.7734e-05,-6e-08,0.0,0 STARLINK-4396,1 53637U 22104BB  24038.00223234 -.00000006  00000-0  17734-4 0  9999,2 53637  53.2183  43.6511 0001716  76.9406 283.1778 15.08845568 80212,6917.863,95.437,540.915,538.541,0.0
53637.0,STARLINK-4396,PAYLOAD,2024-02-07 08:00:08,15.08849379,0.0001709,53.2187,42.1652,74.5835,285.5345,7.0383e-05,8.33e-06,0.0,0 STARLINK-4396,1 53637U 22104BB  24038.33342863  .00000833  00000-0  70383-4 0  9991,2 53637  53.2187  42.1652 0001709  74.5835 285.5345 15.08849379 81286,6917.852,95.437,540.899,538.534,0.0
53637.0,STARLINK-4396,PAYLOAD,2024-02-07 17:32:26,15.08846069,0.0001929,53.2182,40.3833,68.4803,291.6395,-2.7095e-05,-7.19e-06,0.0,0 STARLINK-4396,1 53637U 22104BB  24038.73086749 -.00000719  00000-0 -27095-4 0  9990,2 53637  53.2182  40.3833 0001929  68.4803 291.6395 15.08846069 81346,6917.862,95.437,541.061,538.392,0.0
53637.0,STARLINK-4396,PAYLOAD,2024-02-08 09:26:17,15.08850611,0.0001533,53.2164,37.4066,95.8889,264.2278,-1.2794e-05,-4.92e-06,0.0,0 STARLINK-4396,1 53637U 22104BB  24039.39326202 -.00000492  00000-0 -12794-4 0  9992,2 53637  53.2164  37.4066 0001533  95.8889 264.2278 15.08850611 80422,6917.848,95.437,540.773,538.652,0.0
53637.0,STARLINK-4396,PAYLOAD,2024-02-09 02:55:32,15.08842445,0.0001697,53.2164,34.1358,97.6186,262.4999,0.00013407,1.846e-05,0.0,0 STARLINK-4396,1 53637U 22104BB  24040.12190670  .00001846  00000-0  13407-3 0  9996,2 53637  53.2164  34.1358 0001697  97.6186 262.4999 15.08842445 80539,6917.873,95.437,540.912,538.564,0.0
53637.0,STARLINK-4396,PAYLOAD,2024-02-09 06:06:18,15.08845283,0.0001758,53.2172,33.5408,99.7346,260.3845,0.00014685,2.05e-05,0.0,0 STARLINK-4396,1 53637U 22104BB  24040.25438524  .00002050  00000-0  14685-3 0  9990,2 53637  53.2172  33.5408 0001758  99.7346 260.3845 15.08845283 81571,6917.864,95.437,540.945,538.513,0.0
53637.0,STARLINK-4396,PAYLOAD,2024-02-10 02:46:20,15.08838521,0.0001734,53.2179,29.6794,88.6568,271.4623,0.00010049,1.312e-05,0.0,0 STARLINK-4396,1 53637U 22104BB  24041.11551043  .00001312  00000-0  10049-3 0  9998,2 53637  53.2179  29.6794 0001734  88.6568 271.4623 15.08838521 80684,6917.885,95.438,540.949,538.55,0.0
53637.0,STARLINK-4396,PAYLOAD,2024-02-10 09:07:52,15.08846648,0.0001457,53.2189,28.4845,93.864,266.2519,8.6201e-05,1.084e-05,0.0,0 STARLINK-4396,1 53637U 22104BB  24041.38046521  .00001084  00000-0  86201-4 0  9997,2 53637  53.2189  28.4845 0001457  93.8640 266.2519 15.08846648 81743,6917.86,95.437,540.733,538.717,0.0
53637.0,STARLINK-4396,PAYLOAD,2024-02-11 04:12:30,15.08845294,0.0001367,53.2171,24.9143,96.95,263.1648,4.3337e-05,4.02e-06,0.0,0 STARLINK-4396,1 53637U 22104BB  24042.17534796  .00000402  00000-0  43337-4 0  9997,2 53637  53.2171  24.9143 0001367  96.9500 263.1648 15.08845294 80840,6917.864,95.437,540.675,538.784,0.0
53637.0,STARLINK-4396,PAYLOAD,2024-02-11 05:47:53,15.08846871,0.0001425,53.2173,24.6165,103.0682,257.0469,6.0508e-05,6.75e-06,0.0,0 STARLINK-4396,1 53637U 22104BB  24042.24158596  .00000675  00000-0  60508-4 0  9996,2 53637  53.2173  24.6165 0001425 103.0682 257.0469 15.08846871 81878,6917.859,95.437,540.71,538.739,0.0
53637.0,STARLINK-4396,PAYLOAD,2024-02-12 08:49:25,15.08851521,0.0001496,53.217,19.5573,101.4083,258.7077,0.00015289,2.147e-05,0.0,0 STARLINK-4396,1 53637U 22104BB  24043.36766079  .00002147  00000-0  15289-3 0  9992,2 53637  53.2170  19.5573 0001496 101.4083 258.7077 15.08851521 81024,6917.845,95.437,540.745,538.675,0.0
53637.0,STARLINK-4396,PAYLOAD,2024-02-13 03:54:03,15.08840886,0.0002148,53.2179,15.985,136.2695,223.8467,-2.3001e-05,-6.54e-06,0.0,0 STARLINK-4396,1 53637U 22104BB  24044.16254327 -.00000654  00000-0 -23001-4 0  9994,2 53637  53.2179  15.9850 0002148 136.2695 223.8467 15.08840886 81142,6917.878,95.437,541.229,538.257,0.0
53637.0,STARLINK-4396,PAYLOAD,2024-02-13 07:04:50,15.08842266,0.0001436,53.2172,15.3988,96.7208,263.3948,2.8492e-05,1.66e-06,0.0,0 STARLINK-4396,1 53637U 22104BB  24044.29502686  .00000166  00000-0  28492-4 0  9997,2 53637  53.2172  15.3988 0001436  96.7208 263.3948 15.08842266 82182,6917.873,95.437,540.732,538.745,0.0
53637.0,STARLINK-4396,PAYLOAD,2024-02-13 15:01:46,15.08836086,0.0001555,53.2187,13.9145,93.0297,267.0873,-6.9849e-05,-1.399e-05,0.0,0 STARLINK-4396,1 53637U 22104BB  24044.62623075 -.00001399  00000-0 -69849-4 0  9992,2 53637  53.2187  13.9145 0001555  93.0297 267.0873 15.08836086 81211,6917.892,95.438,540.833,538.682,0.0
53637.0,STARLINK-4396,PAYLOAD,2024-02-14 03:44:50,15.08846935,0.0001576,53.2176,11.5348,99.8012,260.3158,-9.5839e-06,-4.41e-06,0.0,0 STARLINK-4396,1 53637U 22104BB  24045.15614454 -.00000441  00000-0 -95839-5 0  9998,2 53637  53.2176  11.5348 0001576  99.8012 260.3158 15.08846935 81294,6917.859,95.437,540.814,538.634,0.0
53637.0,STARLINK-4396,PAYLOAD,2024-02-14 05:20:13,15.08856578,0.0001473,53.2184,11.2385,101.8672,258.2486,0.00013056,1.791e-05,0.0,0 STARLINK-4396,1 53637U 22104BB  24045.22237909  .00001791  00000-0  13056-3 0  9998,2 53637  53.2184  11.2385 0001473 101.8672 258.2486 15.08856578 81309,6917.83,95.437,540.714,538.676,0.0
53637.0,STARLINK-4396,PAYLOAD,2024-02-14 21:14:06,15.08831845,0.0001558,53.2193,8.2636,109.9741,250.1419,8.2281e-05,1.021e-05,0.0,0 STARLINK-4396,1 53637U 22104BB  24045.88479642  .00001021  00000-0  82281-4 0  9995,2 53637  53.2193   8.2636 0001558 109.9741 250.1419 15.08831845 82425,6917.905,95.438,540.848,538.693,0.0
53637.0,STARLINK-4396,PAYLOAD,2024-02-15 03:35:38,15.08835986,0.0001513,53.2194,7.0771,104.5395,255.5765,8.684e-05,1.094e-05,0.0,0 STARLINK-4396,1 53637U 22104BB  24046.14975572  .00001094  00000-0  86840-4 0  9993,2 53637  53.2194   7.0771 0001513 104.5395 255.5765 15.08835986 81444,6917.893,95.438,540.804,538.711,0.0
